{
  "type": "FeatureCollection",
  "generator": "overpass-turbo",
  "copyright": "The data included in this document is from www.openstreetmap.org. The data is made available under ODbL.",
  "timestamp": "2026-09-12T12:34:06Z",
  "features": [
    {
      "type": "Feature",
      "properties": {
        "@id": "way/23016562",
        "name": "Mutha",
        "name:en": "Mutha",
        "name:gu": "મુઠા",
        "name:mr": "मुठा",
        "waterway": "river",
        "width": "100"
      },
      "geometry": {
        "type": "LineString",
        "coordinates": [
          [
            73.7634967,
            18.4428873
          ],
          [
            73.7634979,
            18.4429326
          ],
          [
            73.763843,
            18.44397
          ],
          [
            73.7647537,
            18.4447953
          ],
          [
            73.7650275,
            18.4450122
          ],
          [
            73.7662206,
            18.4457043
          ],
          [
            73.7671046,
            18.4458916
          ],
          [
            73.7681603,
            18.4462905
          ],
          [
            73.7695765,
            18.4466406
          ],
          [
            73.7701945,
            18.4466732
          ],
          [
            73.7703662,
            18.446893
          ],
          [
            73.7709155,
            18.4470966
          ],
          [
            73.7706752,
            18.4479841
          ],
          [
            73.7703318,
            18.4490018
          ],
          [
            73.770246,
            18.4497183
          ],
          [
            73.7703318,
            18.4514199
          ],
          [
            73.7705807,
            18.4529913
          ],
          [
            73.7706065,
            18.4538218
          ],
          [
            73.7712159,
            18.4551244
          ],
          [
            73.7716794,
            18.4561421
          ],
          [
            73.7724604,
            18.4575995
          ],
          [
            73.7732415,
            18.4583566
          ],
          [
            73.7740397,
            18.4589917
          ],
          [
            73.774898,
            18.4599361
          ],
          [
            73.7752156,
            18.4599361
          ],
          [
            73.775516,
            18.459871
          ],
          [
            73.7757821,
            18.4599524
          ],
          [
            73.7758679,
            18.4602129
          ],
          [
            73.7761082,
            18.4603594
          ],
          [
            73.7768721,
            18.4605141
          ],
          [
            73.7779193,
            18.4608235
          ],
          [
            73.7787432,
            18.4608642
          ],
          [
            73.7800135,
            18.4609538
          ],
          [
            73.7808032,
            18.4612794
          ],
          [
            73.7821336,
            18.4614097
          ],
          [
            73.7828288,
            18.461312
          ],
          [
            73.7835669,
            18.4616051
          ],
          [
            73.7837472,
            18.4618737
          ],
          [
            73.7839703,
            18.4623785
          ],
          [
            73.7842192,
            18.4626635
          ],
          [
            73.7846484,
            18.4628751
          ],
          [
            73.7850604,
            18.4628426
          ],
          [
            73.786159,
            18.4628588
          ],
          [
            73.7872405,
            18.4626879
          ],
          [
            73.7892575,
            18.4623215
          ],
          [
            73.7904162,
            18.4616295
          ],
          [
            73.7907166,
            18.4615888
          ],
          [
            73.7911715,
            18.4618737
          ],
          [
            73.7916798,
            18.4621027
          ],
          [
            73.7928582,
            18.4623867
          ],
          [
            73.7936877,
            18.4625305
          ],
          [
            73.7945361,
            18.4625983
          ],
          [
            73.7954116,
            18.4630542
          ],
          [
            73.7955661,
            18.4631682
          ],
          [
            73.7969823,
            18.464308
          ],
          [
            73.7976775,
            18.4645522
          ],
          [
            73.7979436,
            18.4647558
          ],
          [
            73.7991195,
            18.4660828
          ],
          [
            73.7994027,
            18.4665061
          ],
          [
            73.7998147,
            18.4667992
          ],
          [
            73.8006387,
            18.4672876
          ],
          [
            73.8026213,
            18.468232
          ],
          [
            73.8032737,
            18.4687368
          ],
          [
            73.8080371,
            18.4722387
          ],
          [
            73.8086603,
            18.472861
          ],
          [
            73.8089642,
            18.4732387
          ],
          [
            73.8091702,
            18.4737841
          ],
          [
            73.8092377,
            18.4740199
          ],
          [
            73.8093203,
            18.4743134
          ],
          [
            73.8095565,
            18.4748831
          ],
          [
            73.8103578,
            18.4764334
          ],
          [
            73.8112817,
            18.4782208
          ],
          [
            73.8115907,
            18.4787255
          ],
          [
            73.8118224,
            18.4789534
          ],
          [
            73.8123889,
            18.4793279
          ],
          [
            73.8129296,
            18.4795721
          ],
          [
            73.8144402,
            18.4801175
          ],
          [
            73.8176846,
            18.4817049
          ],
          [
            73.8198733,
            18.4825678
          ],
          [
            73.8208275,
            18.4827246
          ],
          [
            73.822373,
            18.4827199
          ],
          [
            73.82303,
            18.4826613
          ],
          [
            73.82357,
            18.4826931
          ],
          [
            73.823976,
            18.4827957
          ],
          [
            73.8250575,
            18.4833248
          ],
          [
            73.8258986,
            18.4842284
          ],
          [
            73.8268857,
            18.4864018
          ],
          [
            73.8272362,
            18.4873531
          ],
          [
            73.8281374,
            18.4891195
          ],
          [
            73.8284367,
            18.489496
          ],
          [
            73.8287704,
            18.4898994
          ],
          [
            73.8290829,
            18.4904312
          ],
          [
            73.8293803,
            18.4908264
          ],
          [
            73.8296866,
            18.4913763
          ],
          [
            73.8299318,
            18.4916831
          ],
          [
            73.8301362,
            18.491999
          ],
          [
            73.8303361,
            18.4922301
          ],
          [
            73.8305482,
            18.4926248
          ],
          [
            73.8311141,
            18.4934235
          ],
          [
            73.8316184,
            18.4941037
          ],
          [
            73.8321704,
            18.4949339
          ],
          [
            73.8327943,
            18.4957774
          ],
          [
            73.8334002,
            18.4964791
          ],
          [
            73.8343017,
            18.4970986
          ],
          [
            73.835153,
            18.4977991
          ],
          [
            73.8359453,
            18.4989086
          ],
          [
            73.8365043,
            18.5001509
          ],
          [
            73.8368932,
            18.5015672
          ],
          [
            73.8368578,
            18.5022235
          ],
          [
            73.8366802,
            18.50389
          ],
          [
            73.8365931,
            18.5048139
          ],
          [
            73.8365097,
            18.5057726
          ],
          [
            73.8365314,
            18.5060058
          ],
          [
            73.8367697,
            18.5065903
          ],
          [
            73.8369143,
            18.5068393
          ],
          [
            73.8369985,
            18.5070268
          ],
          [
            73.8372257,
            18.5075274
          ],
          [
            73.8375434,
            18.5078518
          ],
          [
            73.8383183,
            18.5085335
          ],
          [
            73.8385331,
            18.5087319
          ],
          [
            73.8386994,
            18.508887
          ],
          [
            73.8388161,
            18.5089975
          ],
          [
            73.8398289,
            18.5098684
          ],
          [
            73.8400184,
            18.5101134
          ],
          [
            73.840301,
            18.5104788
          ],
          [
            73.8409227,
            18.5114006
          ],
          [
            73.8412452,
            18.5118787
          ],
          [
            73.841537,
            18.5122694
          ],
          [
            73.8427349,
            18.5133192
          ],
          [
            73.8436533,
            18.5142145
          ],
          [
            73.8445881,
            18.5154548
          ],
          [
            73.844932,
            18.5159112
          ],
          [
            73.845675,
            18.5172967
          ],
          [
            73.8458132,
            18.5174812
          ],
          [
            73.845945,
            18.5176572
          ],
          [
            73.8462015,
            18.5179899
          ],
          [
            73.8465286,
            18.5184141
          ],
          [
            73.8477125,
            18.5195586
          ],
          [
            73.8487173,
            18.5205301
          ],
          [
            73.8489331,
            18.5206061
          ],
          [
            73.8499189,
            18.5209533
          ],
          [
            73.851042,
            18.5211127
          ],
          [
            73.8513523,
            18.5211568
          ],
          [
            73.8527256,
            18.5214253
          ],
          [
            73.8528308,
            18.5214612
          ],
          [
            73.8541399,
            18.5219075
          ],
          [
            73.8542534,
            18.5219462
          ],
          [
            73.855245,
            18.5225088
          ],
          [
            73.8553005,
            18.5225403
          ],
          [
            73.8564335,
            18.5235169
          ],
          [
            73.8580299,
            18.5250225
          ],
          [
            73.8584002,
            18.5254505
          ],
          [
            73.8586095,
            18.5257474
          ],
          [
            73.8588198,
            18.5259963
          ],
          [
            73.8592573,
            18.52652
          ],
          [
            73.8594241,
            18.5266883
          ],
          [
            73.8595175,
            18.5267825
          ],
          [
            73.8595803,
            18.5268361
          ],
          [
            73.8602873,
            18.5274396
          ],
          [
            73.8605086,
            18.5277745
          ],
          [
            73.8606907,
            18.52805
          ],
          [
            73.8607258,
            18.5287733
          ],
          [
            73.8607508,
            18.529287
          ],
          [
            73.8607131,
            18.5294997
          ],
          [
            73.8603474,
            18.5315656
          ]
        ]
      },
      "id": "way/23016562"
    }
  ]
}